*******************************************************************************
Ephemeris / WWW_USER Mon Mar 24 07:01:17 2025 Pasadena, USA      / Horizons    
*******************************************************************************
Target body name: Triton (801)                    {source: nep097_merged}
Center body name: Earth (399)                     {source: nep097_merged}
Center-site name: Mauna Kea
*******************************************************************************
Start time      : A.D. 2018-Dec-20 03:57:00.0000 UT      
Stop  time      : A.D. 2018-Dec-20 16:41:00.0000 UT      
Step-size       : 1 minutes
*******************************************************************************
Target pole/equ : IAU_TRITON                      {East-longitude positive}
Target radii    : 1352.6, 1352.6, 1352.6 km       {Equator_a, b, pole_c}       
Center geodetic : 204.5278, 19.8260847, 4.21024   {E-lon(deg),Lat(deg),Alt(km)}
Center cylindric: 204.5278, 6006.35451, 2151.0229 {E-lon(deg),Dxy(km),Dz(km)}
Center pole/equ : ITRF93                          {East-longitude positive}
Center radii    : 6378.137, 6378.137, 6356.752 km {Equator_a, b, pole_c}       
Target primary  : Neptune
Vis. interferer : MOON (R_eq= 1737.400) km        {source: DE441}
Rel. light bend : Sun                             {source: nep097_merged}
Rel. lght bnd GM: 1.3271E+11 km^3/s^2                                          
Atmos refraction: NO (AIRLESS)
RA format       : HMS
Time format     : CAL 
Calendar mode   : Mixed Julian/Gregorian
RTS-only print  : NO       
EOP file        : eop.250321.p250617                                           
EOP coverage    : DATA-BASED 1962-JAN-20 TO 2025-MAR-21. PREDICTS-> 2025-JUN-16
Units conversion: 1 au= 149597870.700 km, c= 299792.458 km/s, 1 day= 86400.0 s 
Table cut-offs 1: Elevation (-90.0deg=NO ),Airmass (>38.000=NO), Daylight (YES)
Table cut-offs 2: Solar elongation (  0.0,180.0=NO ),Local Hour Angle( 0.0=NO )
Table cut-offs 3: RA/DEC angular rate (     0.0=NO )                           
*******************************************************************************
 Date__(UT)__HR:MN     R.A._________(ICRF)_________DEC
******************************************************
$$SOE
 2018-Dec-20 10:57  m  23 01 07.340437 -07 20 25.54617
 2018-Dec-20 10:58  m  23 01 07.342879 -07 20 25.52040
 2018-Dec-20 10:59  m  23 01 07.345321 -07 20 25.49463
 2018-Dec-20 11:00  m  23 01 07.347764 -07 20 25.46887
 2018-Dec-20 11:01  m  23 01 07.350208 -07 20 25.44310
 2018-Dec-20 11:02  m  23 01 07.352653 -07 20 25.41733
 2018-Dec-20 11:03  m  23 01 07.355099 -07 20 25.39156
 2018-Dec-20 11:04  m  23 01 07.357545 -07 20 25.36579
 2018-Dec-20 11:05  m  23 01 07.359993 -07 20 25.34002
 2018-Dec-20 11:06  m  23 01 07.362441 -07 20 25.31424
 2018-Dec-20 11:07  m  23 01 07.364890 -07 20 25.28847
 2018-Dec-20 11:08  m  23 01 07.367340 -07 20 25.26269
 2018-Dec-20 11:09  m  23 01 07.369790 -07 20 25.23692
 2018-Dec-20 11:10  m  23 01 07.372242 -07 20 25.21114
 2018-Dec-20 11:11  m  23 01 07.374694 -07 20 25.18537
 2018-Dec-20 11:12  m  23 01 07.377147 -07 20 25.15959
 2018-Dec-20 11:13  m  23 01 07.379601 -07 20 25.13381
 2018-Dec-20 11:14  m  23 01 07.382055 -07 20 25.10803
 2018-Dec-20 11:15  m  23 01 07.384511 -07 20 25.08225
 2018-Dec-20 11:16  m  23 01 07.386967 -07 20 25.05647
 2018-Dec-20 11:17  m  23 01 07.389424 -07 20 25.03069
 2018-Dec-20 11:18  m  23 01 07.391882 -07 20 25.00490
 2018-Dec-20 11:19  m  23 01 07.394341 -07 20 24.97912
 2018-Dec-20 11:20  m  23 01 07.396801 -07 20 24.95334
 2018-Dec-20 11:21  m  23 01 07.399261 -07 20 24.92755
 2018-Dec-20 11:22  m  23 01 07.401722 -07 20 24.90177
 2018-Dec-20 11:23  m  23 01 07.404184 -07 20 24.87598
 2018-Dec-20 11:24  m  23 01 07.406647 -07 20 24.85019
 2018-Dec-20 11:25  m  23 01 07.409111 -07 20 24.82441
 2018-Dec-20 11:26  m  23 01 07.411575 -07 20 24.79862
 2018-Dec-20 11:27  m  23 01 07.414040 -07 20 24.77283
 2018-Dec-20 11:28  m  23 01 07.416506 -07 20 24.74704
 2018-Dec-20 11:29  m  23 01 07.418973 -07 20 24.72125
 2018-Dec-20 11:30  m  23 01 07.421441 -07 20 24.69546
 2018-Dec-20 11:31  m  23 01 07.423909 -07 20 24.66967
 2018-Dec-20 11:32  m  23 01 07.426379 -07 20 24.64387
 2018-Dec-20 11:33  m  23 01 07.428849 -07 20 24.61808
 2018-Dec-20 11:34  m  23 01 07.431320 -07 20 24.59229
 2018-Dec-20 11:35  m  23 01 07.433791 -07 20 24.56649
 2018-Dec-20 11:36  m  23 01 07.436264 -07 20 24.54070
 2018-Dec-20 11:37  m  23 01 07.438737 -07 20 24.51490
 2018-Dec-20 11:38  m  23 01 07.441211 -07 20 24.48911
 2018-Dec-20 11:39  m  23 01 07.443686 -07 20 24.46331
 2018-Dec-20 11:40  m  23 01 07.446161 -07 20 24.43751
 2018-Dec-20 11:41  m  23 01 07.448638 -07 20 24.41171
 2018-Dec-20 11:42  m  23 01 07.451115 -07 20 24.38591
 2018-Dec-20 11:43  m  23 01 07.453593 -07 20 24.36012
 2018-Dec-20 11:44  m  23 01 07.456072 -07 20 24.33432
 2018-Dec-20 11:45  m  23 01 07.458551 -07 20 24.30852
 2018-Dec-20 11:46  m  23 01 07.461032 -07 20 24.28272
 2018-Dec-20 11:47  m  23 01 07.463513 -07 20 24.25691
 2018-Dec-20 11:48  m  23 01 07.465995 -07 20 24.23111
 2018-Dec-20 11:49  m  23 01 07.468477 -07 20 24.20531
 2018-Dec-20 11:50  m  23 01 07.470961 -07 20 24.17951
 2018-Dec-20 11:51  m  23 01 07.473445 -07 20 24.15370
 2018-Dec-20 11:52  m  23 01 07.475930 -07 20 24.12790
 2018-Dec-20 11:53  m  23 01 07.478416 -07 20 24.10210
 2018-Dec-20 11:54  m  23 01 07.480903 -07 20 24.07629
 2018-Dec-20 11:55  m  23 01 07.483390 -07 20 24.05049
 2018-Dec-20 11:56  m  23 01 07.485878 -07 20 24.02468
 2018-Dec-20 11:57  m  23 01 07.488367 -07 20 23.99888
 2018-Dec-20 11:58  m  23 01 07.490857 -07 20 23.97307
 2018-Dec-20 11:59  m  23 01 07.493348 -07 20 23.94726
 2018-Dec-20 12:00  m  23 01 07.495839 -07 20 23.92146
 2018-Dec-20 12:01  m  23 01 07.498331 -07 20 23.89565
 2018-Dec-20 12:02  m  23 01 07.500824 -07 20 23.86984
 2018-Dec-20 12:03  m  23 01 07.503317 -07 20 23.84403
 2018-Dec-20 12:04  m  23 01 07.505812 -07 20 23.81822
 2018-Dec-20 12:05  m  23 01 07.508307 -07 20 23.79241
 2018-Dec-20 12:06  m  23 01 07.510803 -07 20 23.76660
 2018-Dec-20 12:07  m  23 01 07.513299 -07 20 23.74079
 2018-Dec-20 12:08  m  23 01 07.515797 -07 20 23.71498
 2018-Dec-20 12:09  m  23 01 07.518295 -07 20 23.68917
 2018-Dec-20 12:10  m  23 01 07.520794 -07 20 23.66336
 2018-Dec-20 12:11  m  23 01 07.523294 -07 20 23.63755
 2018-Dec-20 12:12  m  23 01 07.525794 -07 20 23.61174
 2018-Dec-20 12:13  m  23 01 07.528296 -07 20 23.58593
 2018-Dec-20 12:14  m  23 01 07.530798 -07 20 23.56012
 2018-Dec-20 12:15  m  23 01 07.533300 -07 20 23.53430
 2018-Dec-20 12:16  m  23 01 07.535804 -07 20 23.50849
 2018-Dec-20 12:17  m  23 01 07.538308 -07 20 23.48268
 2018-Dec-20 12:18  m  23 01 07.540813 -07 20 23.45686
 2018-Dec-20 12:19  m  23 01 07.543319 -07 20 23.43105
 2018-Dec-20 12:20  m  23 01 07.545825 -07 20 23.40524
 2018-Dec-20 12:21  m  23 01 07.548333 -07 20 23.37942
 2018-Dec-20 12:22  m  23 01 07.550841 -07 20 23.35361
 2018-Dec-20 12:23  m  23 01 07.553349 -07 20 23.32779
 2018-Dec-20 12:24  m  23 01 07.555859 -07 20 23.30198
 2018-Dec-20 12:25  m  23 01 07.558369 -07 20 23.27616
 2018-Dec-20 12:26  m  23 01 07.560880 -07 20 23.25035
 2018-Dec-20 12:27  m  23 01 07.563392 -07 20 23.22453
 2018-Dec-20 12:28  m  23 01 07.565904 -07 20 23.19872
 2018-Dec-20 12:29  m  23 01 07.568418 -07 20 23.17290
 2018-Dec-20 12:30  m  23 01 07.570932 -07 20 23.14709
 2018-Dec-20 12:31  m  23 01 07.573446 -07 20 23.12127
 2018-Dec-20 12:32  m  23 01 07.575962 -07 20 23.09545
 2018-Dec-20 12:33  m  23 01 07.578478 -07 20 23.06964
 2018-Dec-20 12:34  m  23 01 07.580995 -07 20 23.04382
 2018-Dec-20 12:35  m  23 01 07.583513 -07 20 23.01800
 2018-Dec-20 12:36  m  23 01 07.586031 -07 20 22.99219
 2018-Dec-20 12:37  m  23 01 07.588550 -07 20 22.96637
 2018-Dec-20 12:38  m  23 01 07.591070 -07 20 22.94055
 2018-Dec-20 12:39  m  23 01 07.593590 -07 20 22.91474
 2018-Dec-20 12:40  m  23 01 07.596112 -07 20 22.88892
 2018-Dec-20 12:41  m  23 01 07.598634 -07 20 22.86310
 2018-Dec-20 12:42  m  23 01 07.601156 -07 20 22.83729
 2018-Dec-20 12:43  m  23 01 07.603680 -07 20 22.81147
 2018-Dec-20 12:44  m  23 01 07.606204 -07 20 22.78565
 2018-Dec-20 12:45  m  23 01 07.608729 -07 20 22.75983
 2018-Dec-20 12:46  m  23 01 07.611255 -07 20 22.73402
 2018-Dec-20 12:47  m  23 01 07.613781 -07 20 22.70820
 2018-Dec-20 12:48  m  23 01 07.616308 -07 20 22.68238
 2018-Dec-20 12:49  m  23 01 07.618836 -07 20 22.65656
 2018-Dec-20 12:50  m  23 01 07.621364 -07 20 22.63074
 2018-Dec-20 12:51  m  23 01 07.623894 -07 20 22.60493
 2018-Dec-20 12:52  m  23 01 07.626423 -07 20 22.57911
 2018-Dec-20 12:53  m  23 01 07.628954 -07 20 22.55329
 2018-Dec-20 12:54  m  23 01 07.631485 -07 20 22.52747
 2018-Dec-20 12:55  m  23 01 07.634017 -07 20 22.50166
 2018-Dec-20 12:56  m  23 01 07.636550 -07 20 22.47584
 2018-Dec-20 12:57  m  23 01 07.639084 -07 20 22.45002
 2018-Dec-20 12:58  m  23 01 07.641618 -07 20 22.42420
 2018-Dec-20 12:59  m  23 01 07.644153 -07 20 22.39839
 2018-Dec-20 13:00  m  23 01 07.646688 -07 20 22.37257
 2018-Dec-20 13:01  m  23 01 07.649224 -07 20 22.34675
 2018-Dec-20 13:02  m  23 01 07.651761 -07 20 22.32093
 2018-Dec-20 13:03  m  23 01 07.654299 -07 20 22.29512
 2018-Dec-20 13:04  m  23 01 07.656837 -07 20 22.26930
 2018-Dec-20 13:05  m  23 01 07.659376 -07 20 22.24348
 2018-Dec-20 13:06  m  23 01 07.661916 -07 20 22.21767
 2018-Dec-20 13:07  m  23 01 07.664456 -07 20 22.19185
 2018-Dec-20 13:08  m  23 01 07.666998 -07 20 22.16603
 2018-Dec-20 13:09  m  23 01 07.669539 -07 20 22.14022
 2018-Dec-20 13:10  m  23 01 07.672082 -07 20 22.11440
 2018-Dec-20 13:11  m  23 01 07.674625 -07 20 22.08858
 2018-Dec-20 13:12  m  23 01 07.677169 -07 20 22.06277
 2018-Dec-20 13:13  m  23 01 07.679713 -07 20 22.03695
 2018-Dec-20 13:14  m  23 01 07.682259 -07 20 22.01114
 2018-Dec-20 13:15  m  23 01 07.684804 -07 20 21.98532
 2018-Dec-20 13:16  m  23 01 07.687351 -07 20 21.95951
